FENGYUN 1C DEB          
1 30329U 99025AAQ 17345.36559506  .00000040  00000-0  70445-4 0  9999
2 30329  99.2266 264.4182 0144528 296.4588 184.2142 13.84415288549482
